EPGD 031100Z 25009KT 8000 OVC006 05/04 Q1012
EPGD 031000Z 23009KT 9000 BKN006 05/04 Q1012
EPGD 030900Z 23006KT 9000 OVC006 05/04 Q1012
EPGD 030800Z 24007KT 8000 BKN004 05/04 Q1012
EPGD 030700Z 23007KT 6000 OVC003 04/04 Q1011
EPGD 030600Z 23008KT 7000 BKN006 04/03 Q1011
EPGD 030500Z 22006KT 170V240 8000 FEW007 OVC046 04/03 Q1011
EPGD 030400Z 22009KT 8000 FEW008 OVC040 04/03 Q1011
EPGD 030300Z 22009KT 8000 FEW008 OVC045 04/03 Q1011
EPGD 030200Z 22005KT 170V240 9000 OVC045 04/03 Q1011
EPGD 030100Z 21005KT 170V250 9000 OVC045 04/03 Q1011
EPGD 030000Z 22005KT 180V240 8000 OVC046 04/03 Q1011
EPGD 022300Z 22004KT 7000 OVC042 04/03 Q1012
EPGD 022200Z 23009KT 6000 OVC003 03/03 Q1012
EPGD 022100Z 23008KT 7000 OVC004 03/03 Q1012
EPGD 022000Z 22009KT 9999 OVC005 03/02 Q1012
EPGD 021900Z 22007KT 9000 BKN005 BKN043 03/02 Q1013
EPGD 021800Z 22010KT 7000 OVC006 03/02 Q1013
EPGD 021700Z 22011KT 7000 OVC005 02/01 Q1013
EPGD 021600Z 21008KT 180V240 6000 OVC005 02/01 Q1013
EPGD 021500Z 22010KT 180V240 7000 OVC006 02/00 Q1013
EPGD 021400Z 23010KT 8000 OVC006 02/00 Q1013
EPGD 021300Z 22009KT 180V240 CAVOK 02/M01 Q1013
EPGD 021200Z 21010KT CAVOK 02/M01 Q1013
EPGD 021100Z 22012KT CAVOK 02/M01 Q1014
EPGD 021000Z 22008KT CAVOK 02/M01 Q1014
EPGD 020800Z 19007KT CAVOK 00/M01 Q1015
EPGD 020700Z 20007KT 9000 FEW004 M00/M01 Q1015
EPGD 020600Z 19007KT 5000 BR OVC003 00/M00 Q1016
EPGD 020500Z 17009KT 3000 BR BKN002 00/M00 Q1016
EPGD 020400Z 17007KT 4200 BR BKN002 00/M00 Q1017
EPGD 020300Z 17008KT 2400 BR BKN002 00/M00 Q1017
EPGD 020200Z 17006KT 3100 BR BKN002 M00/M00 Q1018
EPGD 020100Z 16005KT 3200 BR BKN002 M00/M01 Q1019
EPGD 020000Z 15006KT 3600 BR BKN003 00/M00 Q1019
EPGD 012300Z 15005KT 4200 BR SCT004 00/M01 Q1020
EPGD 012200Z 17005KT 4600 BR BKN004 01/00 Q1021
EPGD 012100Z 17004KT 4000 BR BKN006 01/M00 Q1022
EPGD 012000Z 18005KT 5000 BR BKN006 01/00 Q1022
EPGD 011900Z 20007KT 6000 BKN006 01/00 Q1023
EPGD 011800Z 18007KT 7000 BKN006 01/00 Q1023
EPGD 011700Z 18005KT 7000 BKN007 01/00 Q1024
EPGD 011600Z 18007KT 8000 BKN008 02/00 Q1024
EPGD 011500Z 20009KT 9000 BKN008 02/01 Q1025
EPGD 011400Z VRB05KT 9000 SCT009 03/01 Q1025
EPGD 011300Z 19010KT CAVOK 04/01 Q1025
EPGD 011200Z 20010KT CAVOK 05/01 Q1026
EPGD 011100Z 20009KT CAVOK 04/00 Q1027
EPGD 011000Z 20007KT CAVOK 04/00 Q1027
EPGD 010900Z 20005KT CAVOK 03/M00 Q1028
EPGD 010800Z 19009KT CAVOK 03/M00 Q1028
EPGD 010700Z 21007KT 160V240 CAVOK 03/M00 Q1028
EPGD 010600Z 23009KT CAVOK 03/M00 Q1028
EPGD 010500Z 21009KT CAVOK 02/M00 Q1028
EPGD 010400Z 22009KT CAVOK 02/M00 Q1028
EPGD 010300Z 23007KT CAVOK 02/M00 Q1028
EPGD 010200Z 21006KT CAVOK 03/M00 Q1029
EPGD 010100Z 22005KT 180V250 CAVOK 03/00 Q1030
EPGD 010000Z 21007KT CAVOK 03/00 Q1030
EPGD 302300Z 23009KT CAVOK 03/M00 Q1030
EPGD 302200Z 23009KT 190V250 CAVOK 03/M01 Q1030
EPGD 302100Z 22009KT CAVOK 03/M01 Q1031
EPGD 302000Z 22010KT CAVOK 03/M01 Q1031
EPGD 301900Z 20008KT 170V240 CAVOK 03/M01 Q1031
EPGD 301800Z 21006KT CAVOK 02/M01 Q1031
EPGD 301700Z 19008KT CAVOK 02/M00 Q1031
EPGD 301600Z 19004KT CAVOK 02/M01 Q1032
EPGD 301500Z 18005KT CAVOK 02/M01 Q1032
EPGD 301400Z 22008KT CAVOK 03/M01 Q1032
EPGD 301300Z 21008KT 9999 FEW018 04/M01 Q1032
EPGD 301200Z 23011KT 9999 FEW016 04/M01 Q1033
EPGD 301100Z 24012KT 9999 BKN015 03/M00 Q1033
EPGD 301000Z 23011KT 9999 BKN014 03/M00 Q1033
EPGD 300900Z 21010KT 180V240 9999 BKN011 03/M00 Q1033
EPGD 300800Z 23008KT 9999 BKN011 03/00 Q1034
EPGD 300700Z 23009KT 9999 OVC010 02/00 Q1034
EPGD 300600Z 23007KT 9999 OVC010 03/00 Q1033
EPGD 300500Z 22006KT 9999 BKN011 03/01 Q1033
EPGD 300400Z 22006KT 9999 OVC013 03/01 Q1033
EPGD 300300Z 23005KT 9999 OVC015 03/01 Q1033
EPGD 300200Z 23007KT 9999 OVC015 03/01 Q1033
EPGD 300100Z 25005KT 9999 BKN013 03/01 Q1033
EPGD 300000Z 27008KT 9999 OVC011 03/01 Q1033
EPGD 292300Z 27008KT 9999 OVC012 03/01 Q1033
EPGD 292200Z 26007KT 9999 OVC013 03/01 Q1033
EPGD 292100Z 26007KT 9999 OVC012 03/01 Q1033
EPGD 292000Z 27005KT 9999 OVC012 03/01 Q1033
EPGD 291900Z 29009KT 9999 BKN011 03/01 Q1033
EPGD 291800Z 31006KT 9999 BKN014 04/01 Q1032
EPGD 291700Z 31006KT 9999 BKN014 04/02 Q1031
EPGD 291600Z 31008KT 9999 SCT020 03/02 Q1031
EPGD 291500Z 31011KT 9999 FEW008 BKN030 04/02 Q1031
EPGD 291400Z 33008KT 9999 FEW008 BKN030 05/03 Q1030
EPGD 291300Z 32008KT 9999 BKN008 05/04 Q1030
EPGD 291200Z 34009KT 9999 BKN007 05/04 Q1029
EPGD 291100Z 34008KT 9999 BKN007 06/05 Q1029
EPGD 291000Z 36008KT 9000 -RA FEW007 BKN020 06/04 Q1028
EPGD 290900Z 36006KT 9999 BKN029 06/01 Q1028
EPGD 290800Z 02008KT 360V060 9999 BKN032 06/01 Q1027
EPGD 290700Z 02009KT 340V050 9999 BKN026 06/01 Q1026
